[{"CCSDS_OMM_VERS":"3.0","COMMENT":"GENERATED VIA SPACE-TRACK.ORG API","CREATION_DATE":"2026-03-29T00:16:19","ORIGINATOR":"18 SPCS","OBJECT_NAME":"TURKSAT 3A","OBJECT_ID":"2008-030B","CENTER_NAME":"EARTH","REF_FRAME":"TEME","TIME_SYSTEM":"UTC","MEAN_ELEMENT_THEORY":"SGP4","EPOCH":"2026-03-28T20:07:10.176672","MEAN_MOTION":"1.00272495","ECCENTRICITY":"0.00049450","INCLINATION":"0.0585","RA_OF_ASC_NODE":"77.9565","ARG_OF_PERICENTER":"312.3150","MEAN_ANOMALY":"139.7330","EPHEMERIS_TYPE":"0","CLASSIFICATION_TYPE":"U","NORAD_CAT_ID":"33056","ELEMENT_SET_NO":"999","REV_AT_EPOCH":"5155","BSTAR":"0.00000000000000","MEAN_MOTION_DOT":"0.00000127","MEAN_MOTION_DDOT":"0.0000000000000","SEMIMAJOR_AXIS":"42164.533","PERIOD":"1436.087","APOAPSIS":"35807.248","PERIAPSIS":"35765.548","OBJECT_TYPE":"PAYLOAD","RCS_SIZE":"LARGE","COUNTRY_CODE":"TURK","LAUNCH_DATE":"2008-06-12","SITE":"FRGUI","DECAY_DATE":null,"FILE":"5104680","GP_ID":"317475354","TLE_LINE0":"0 TURKSAT 3A","TLE_LINE1":"1 33056U 08030B   26087.83831223  .00000127  00000-0  00000+0 0  9990","TLE_LINE2":"2 33056   0.0585  77.9565 0004945 312.3150 139.7330  1.00272495 51555"},{"CCSDS_OMM_VERS":"3.0","COMMENT":"GENERATED VIA SPACE-TRACK.ORG API","CREATION_DATE":"2026-03-29T00:16:19","ORIGINATOR":"18 SPCS","OBJECT_NAME":"GOKTURK 2","OBJECT_ID":"2012-073A","CENTER_NAME":"EARTH","REF_FRAME":"TEME","TIME_SYSTEM":"UTC","MEAN_ELEMENT_THEORY":"SGP4","EPOCH":"2026-03-28T20:32:21.249600","MEAN_MOTION":"14.75460122","ECCENTRICITY":"0.00009290","INCLINATION":"97.6883","RA_OF_ASC_NODE":"289.2896","ARG_OF_PERICENTER":"99.4271","MEAN_ANOMALY":"260.7044","EPHEMERIS_TYPE":"0","CLASSIFICATION_TYPE":"U","NORAD_CAT_ID":"39030","ELEMENT_SET_NO":"999","REV_AT_EPOCH":"71266","BSTAR":"0.00015410000000","MEAN_MOTION_DOT":"0.00001000","MEAN_MOTION_DDOT":"0.0000000000000","SEMIMAJOR_AXIS":"7021.828","PERIOD":"97.597","APOAPSIS":"644.345","PERIAPSIS":"643.041","OBJECT_TYPE":"PAYLOAD","RCS_SIZE":"LARGE","COUNTRY_CODE":"TURK","LAUNCH_DATE":"2012-12-18","SITE":"JSC","DECAY_DATE":null,"FILE":"5104533","GP_ID":"317477349","TLE_LINE0":"0 GOKTURK 2","TLE_LINE1":"1 39030U 12073A   26087.85580150  .00001000  00000-0  15410-3 0  9998","TLE_LINE2":"2 39030  97.6883 289.2896 0000929  99.4271 260.7044 14.75460122712661"},{"CCSDS_OMM_VERS":"3.0","COMMENT":"GENERATED VIA SPACE-TRACK.ORG API","CREATION_DATE":"2026-03-29T00:16:19","ORIGINATOR":"18 SPCS","OBJECT_NAME":"TURKSAT 3U","OBJECT_ID":"2013-018C","CENTER_NAME":"EARTH","REF_FRAME":"TEME","TIME_SYSTEM":"UTC","MEAN_ELEMENT_THEORY":"SGP4","EPOCH":"2026-03-28T19:50:12.801984","MEAN_MOTION":"14.95891391","ECCENTRICITY":"0.00122150","INCLINATION":"97.7909","RA_OF_ASC_NODE":"179.0306","ARG_OF_PERICENTER":"14.8405","MEAN_ANOMALY":"345.3172","EPHEMERIS_TYPE":"0","CLASSIFICATION_TYPE":"U","NORAD_CAT_ID":"39152","ELEMENT_SET_NO":"999","REV_AT_EPOCH":"69907","BSTAR":"0.00034049000000","MEAN_MOTION_DOT":"0.00003755","MEAN_MOTION_DDOT":"0.0000000000000","SEMIMAJOR_AXIS":"6957.744","PERIOD":"96.264","APOAPSIS":"588.108","PERIAPSIS":"571.110","OBJECT_TYPE":"PAYLOAD","RCS_SIZE":"MEDIUM","COUNTRY_CODE":"TURK","LAUNCH_DATE":"2013-04-26","SITE":"JSC","DECAY_DATE":null,"FILE":"5104535","GP_ID":"317477374","TLE_LINE0":"0 TURKSAT 3U","TLE_LINE1":"1 39152U 13018C   26087.82653706  .00003755  00000-0  34049-3 0  9996","TLE_LINE2":"2 39152  97.7909 179.0306 0012215  14.8405 345.3172 14.95891391699078"},{"CCSDS_OMM_VERS":"3.0","COMMENT":"GENERATED VIA SPACE-TRACK.ORG API","CREATION_DATE":"2026-03-29T00:16:19","ORIGINATOR":"18 SPCS","OBJECT_NAME":"TURKSAT 4A","OBJECT_ID":"2014-007A","CENTER_NAME":"EARTH","REF_FRAME":"TEME","TIME_SYSTEM":"UTC","MEAN_ELEMENT_THEORY":"SGP4","EPOCH":"2026-03-28T20:07:10.176672","MEAN_MOTION":"1.00269604","ECCENTRICITY":"0.00041310","INCLINATION":"0.0619","RA_OF_ASC_NODE":"289.7030","ARG_OF_PERICENTER":"24.6945","MEAN_ANOMALY":"215.6253","EPHEMERIS_TYPE":"0","CLASSIFICATION_TYPE":"U","NORAD_CAT_ID":"39522","ELEMENT_SET_NO":"999","REV_AT_EPOCH":"4416","BSTAR":"0.00000000000000","MEAN_MOTION_DOT":"0.00000127","MEAN_MOTION_DDOT":"0.0000000000000","SEMIMAJOR_AXIS":"42165.343","PERIOD":"1436.128","APOAPSIS":"35804.627","PERIAPSIS":"35769.790","OBJECT_TYPE":"PAYLOAD","RCS_SIZE":"LARGE","COUNTRY_CODE":"TURK","LAUNCH_DATE":"2014-02-14","SITE":"TTMTR","DECAY_DATE":null,"FILE":"5104539","GP_ID":"317477949","TLE_LINE0":"0 TURKSAT 4A","TLE_LINE1":"1 39522U 14007A   26087.83831223  .00000127  00000-0  00000+0 0  9995","TLE_LINE2":"2 39522   0.0619 289.7030 0004131  24.6945 215.6253  1.00269604 44164"},{"CCSDS_OMM_VERS":"3.0","COMMENT":"GENERATED VIA SPACE-TRACK.ORG API","CREATION_DATE":"2026-03-29T00:16:19","ORIGINATOR":"18 SPCS","OBJECT_NAME":"TURKSAT 4B","OBJECT_ID":"2015-060A","CENTER_NAME":"EARTH","REF_FRAME":"TEME","TIME_SYSTEM":"UTC","MEAN_ELEMENT_THEORY":"SGP4","EPOCH":"2026-03-28T20:09:24.960672","MEAN_MOTION":"1.00269048","ECCENTRICITY":"0.00023360","INCLINATION":"0.0049","RA_OF_ASC_NODE":"88.8695","ARG_OF_PERICENTER":"276.6634","MEAN_ANOMALY":"173.0671","EPHEMERIS_TYPE":"0","CLASSIFICATION_TYPE":"U","NORAD_CAT_ID":"40984","ELEMENT_SET_NO":"999","REV_AT_EPOCH":"3829","BSTAR":"0.00000000000000","MEAN_MOTION_DOT":"0.00000096","MEAN_MOTION_DDOT":"0.0000000000000","SEMIMAJOR_AXIS":"42165.499","PERIOD":"1436.136","APOAPSIS":"35797.214","PERIAPSIS":"35777.514","OBJECT_TYPE":"PAYLOAD","RCS_SIZE":"LARGE","COUNTRY_CODE":"TURK","LAUNCH_DATE":"2015-10-16","SITE":"TTMTR","DECAY_DATE":null,"FILE":"5104562","GP_ID":"317478238","TLE_LINE0":"0 TURKSAT 4B","TLE_LINE1":"1 40984U 15060A   26087.83987223  .00000096  00000-0  00000+0 0  9996","TLE_LINE2":"2 40984   0.0049  88.8695 0002336 276.6634 173.0671  1.00269048 38299"},{"CCSDS_OMM_VERS":"3.0","COMMENT":"GENERATED VIA SPACE-TRACK.ORG API","CREATION_DATE":"2026-03-29T00:16:19","ORIGINATOR":"18 SPCS","OBJECT_NAME":"GOKTURK-1A","OBJECT_ID":"2016-073A","CENTER_NAME":"EARTH","REF_FRAME":"TEME","TIME_SYSTEM":"UTC","MEAN_ELEMENT_THEORY":"SGP4","EPOCH":"2026-03-28T19:16:18.679008","MEAN_MOTION":"14.62767738","ECCENTRICITY":"0.00013570","INCLINATION":"98.1337","RA_OF_ASC_NODE":"343.6997","ARG_OF_PERICENTER":"81.5928","MEAN_ANOMALY":"278.5427","EPHEMERIS_TYPE":"0","CLASSIFICATION_TYPE":"U","NORAD_CAT_ID":"41875","ELEMENT_SET_NO":"999","REV_AT_EPOCH":"49707","BSTAR":"0.00004613500000","MEAN_MOTION_DOT":"0.00000189","MEAN_MOTION_DDOT":"0.0000000000000","SEMIMAJOR_AXIS":"7062.388","PERIOD":"98.444","APOAPSIS":"685.212","PERIAPSIS":"683.295","OBJECT_TYPE":"PAYLOAD","RCS_SIZE":"LARGE","COUNTRY_CODE":"TURK","LAUNCH_DATE":"2016-12-05","SITE":"FRGUI","DECAY_DATE":null,"FILE":"5104691","GP_ID":"317478410","TLE_LINE0":"0 GOKTURK-1A","TLE_LINE1":"1 41875U 16073A   26087.80299397  .00000189  00000-0  46135-4 0  9993","TLE_LINE2":"2 41875  98.1337 343.6997 0001357  81.5928 278.5427 14.62767738497071"},{"CCSDS_OMM_VERS":"3.0","COMMENT":"GENERATED VIA SPACE-TRACK.ORG API","CREATION_DATE":"2026-03-28T21:48:48","ORIGINATOR":"18 SPCS","OBJECT_NAME":"TURKSAT 5A","OBJECT_ID":"2021-001A","CENTER_NAME":"EARTH","REF_FRAME":"TEME","TIME_SYSTEM":"UTC","MEAN_ELEMENT_THEORY":"SGP4","EPOCH":"2026-03-28T06:52:38.548128","MEAN_MOTION":"1.00272631","ECCENTRICITY":"0.00001624","INCLINATION":"0.0163","RA_OF_ASC_NODE":"113.5111","ARG_OF_PERICENTER":"144.0999","MEAN_ANOMALY":"62.1547","EPHEMERIS_TYPE":"0","CLASSIFICATION_TYPE":"U","NORAD_CAT_ID":"47306","ELEMENT_SET_NO":"999","REV_AT_EPOCH":"1915","BSTAR":"0.00000000000000","MEAN_MOTION_DOT":"0.00000135","MEAN_MOTION_DDOT":"0.0000000000000","SEMIMAJOR_AXIS":"42164.495","PERIOD":"1436.085","APOAPSIS":"35787.044","PERIAPSIS":"35785.675","OBJECT_TYPE":"PAYLOAD","RCS_SIZE":"LARGE","COUNTRY_CODE":"TURK","LAUNCH_DATE":"2021-01-08","SITE":"AFETR","DECAY_DATE":null,"FILE":"5104379","GP_ID":"317458695","TLE_LINE0":"0 TURKSAT 5A","TLE_LINE1":"1 47306U 21001A   26087.28655727  .00000135  00000-0  00000-0 0  9998","TLE_LINE2":"2 47306   0.0163 113.5111 0000162 144.0999  62.1547  1.00272631 19153"},{"CCSDS_OMM_VERS":"3.0","COMMENT":"GENERATED VIA SPACE-TRACK.ORG API","CREATION_DATE":"2026-03-29T00:36:20","ORIGINATOR":"18 SPCS","OBJECT_NAME":"TURKSAT 5B","OBJECT_ID":"2021-126A","CENTER_NAME":"EARTH","REF_FRAME":"TEME","TIME_SYSTEM":"UTC","MEAN_ELEMENT_THEORY":"SGP4","EPOCH":"2026-03-28T14:59:04.159680","MEAN_MOTION":"1.00271876","ECCENTRICITY":"0.00052800","INCLINATION":"0.0780","RA_OF_ASC_NODE":"334.4024","ARG_OF_PERICENTER":"1.0493","MEAN_ANOMALY":"117.3355","EPHEMERIS_TYPE":"0","CLASSIFICATION_TYPE":"U","NORAD_CAT_ID":"50212","ELEMENT_SET_NO":"999","REV_AT_EPOCH":"1549","BSTAR":"0.00000000000000","MEAN_MOTION_DOT":"0.00000126","MEAN_MOTION_DDOT":"0.0000000000000","SEMIMAJOR_AXIS":"42164.706","PERIOD":"1436.096","APOAPSIS":"35808.834","PERIAPSIS":"35764.308","OBJECT_TYPE":"PAYLOAD","RCS_SIZE":"LARGE","COUNTRY_CODE":"TURK","LAUNCH_DATE":"2021-12-19","SITE":"AFETR","DECAY_DATE":null,"FILE":"5104985","GP_ID":"317488297","TLE_LINE0":"0 TURKSAT 5B","TLE_LINE1":"1 50212U 21126A   26087.62435370  .00000126  00000-0  00000+0 0  9993","TLE_LINE2":"2 50212   0.0780 334.4024 0005280   1.0493 117.3355  1.00271876 15495"},{"CCSDS_OMM_VERS":"3.0","COMMENT":"GENERATED VIA SPACE-TRACK.ORG API","CREATION_DATE":"2026-03-29T00:26:21","ORIGINATOR":"18 SPCS","OBJECT_NAME":"TURKSAT 6A","OBJECT_ID":"2024-127A","CENTER_NAME":"EARTH","REF_FRAME":"TEME","TIME_SYSTEM":"UTC","MEAN_ELEMENT_THEORY":"SGP4","EPOCH":"2026-03-28T20:07:10.176672","MEAN_MOTION":"1.00272636","ECCENTRICITY":"0.00015000","INCLINATION":"0.0299","RA_OF_ASC_NODE":"199.4446","ARG_OF_PERICENTER":"129.2241","MEAN_ANOMALY":"201.3596","EPHEMERIS_TYPE":"0","CLASSIFICATION_TYPE":"U","NORAD_CAT_ID":"60233","ELEMENT_SET_NO":"999","REV_AT_EPOCH":"621","BSTAR":"0.00000000000000","MEAN_MOTION_DOT":"0.00000127","MEAN_MOTION_DDOT":"0.0000000000000","SEMIMAJOR_AXIS":"42164.493","PERIOD":"1436.085","APOAPSIS":"35792.683","PERIAPSIS":"35780.034","OBJECT_TYPE":"PAYLOAD","RCS_SIZE":"LARGE","COUNTRY_CODE":"TURK","LAUNCH_DATE":"2024-07-08","SITE":"AFETR","DECAY_DATE":null,"FILE":"5104957","GP_ID":"317488041","TLE_LINE0":"0 TURKSAT 6A","TLE_LINE1":"1 60233U 24127A   26087.83831223  .00000127  00000-0  00000+0 0  9992","TLE_LINE2":"2 60233   0.0299 199.4446 0001500 129.2241 201.3596  1.00272636  6212"}]